{"type": "FeatureCollection", "features": [ {"type": "Feature", "properties": {"norad_id": 36402, "name": "COSMOS 2460 (732)", "group": "gnss", "lat": 61.67007004011102, "lon": 18.276913673098555, "alt_km": 19129.276918100328, "timestamp": "2025-12-16T05:49:09.456404+00:00", "meta": {"OBJECT_NAME": "COSMOS 2460 (732)", "OBJECT_ID": "2010-007C", "EPOCH": "2025-12-15T05:47:00.728160", "MEAN_MOTION": 2.13106127, "ECCENTRICITY": 0.00026664, "INCLINATION": 65.5278, "RA_OF_ASC_NODE": 320.6882, "ARG_OF_PERICENTER": 275.3459, "MEAN_ANOMALY": 111.58, "EPHEMERIS_TYPE": 0, "CLASSIFICATION_TYPE": "U", "NORAD_CAT_ID": 36402, "ELEMENT_SET_NO": 999, "REV_AT_EPOCH": 12281, "BSTAR": 0, "MEAN_MOTION_DOT": -6.7e-07, "MEAN_MOTION_DDOT": 0}, "tle": {"line1": "1 36402U 10007C   25349.24098065 -.00000067  00000+0  00000+0 0  9992", "line2": "2 36402  65.5278 320.6882 0002666 275.3459 111.5800  2.13106127122817"}}, "geometry": {"type": "Point", "coordinates": [18.276913673098555, 61.67007004011102]}}, {"type": "Feature", "properties": {"norad_id": 36585, "name": "GPS BIIF-1  (PRN 25)", "group": "gnss", "lat": -11.339662694485426, "lon": 44.22905155989623, "alt_km": 20392.912319566316, "timestamp": "2025-12-16T05:49:09.456416+00:00", "meta": {"OBJECT_NAME": "GPS BIIF-1  (PRN 25)", "OBJECT_ID": "2010-022A", "EPOCH": "2025-12-15T05:30:38.622816", "MEAN_MOTION": 2.00553409, "ECCENTRICITY": 0.01262158, "INCLINATION": 54.2997, "RA_OF_ASC_NODE": 215.9735, "ARG_OF_PERICENTER": 65.1022, "MEAN_ANOMALY": 116.5143, "EPHEMERIS_TYPE": 0, "CLASSIFICATION_TYPE": "U", "NORAD_CAT_ID": 36585, "ELEMENT_SET_NO": 999, "REV_AT_EPOCH": 11390, "BSTAR": 0, "MEAN_MOTION_DOT": 6.3e-07, "MEAN_MOTION_DDOT": 0}, "tle": {"line1": "1 36585U 10022A   25349.22961369  .00000063  00000+0  00000+0 0  9990", "line2": "2 36585  54.2997 215.9735 0126215  65.1022 116.5143  2.00553409113903"}}, "geometry": {"type": "Point", "coordinates": [44.22905155989623, -11.339662694485426]}}, {"type": "Feature", "properties": {"norad_id": 36828, "name": "BEIDOU-2 IGSO-1 (C06)", "group": "gnss", "lat": 47.2540510116848, "lon": -66.61231843466311, "alt_km": 35819.433698858484, "timestamp": "2025-12-16T05:49:09.456427+00:00", "meta": {"OBJECT_NAME": "BEIDOU-2 IGSO-1 (C06)", "OBJECT_ID": "2010-036A", "EPOCH": "2025-12-14T21:38:21.623424", "MEAN_MOTION": 1.00275796, "ECCENTRICITY": 0.00512569, "INCLINATION": 54.2866, "RA_OF_ASC_NODE": 164.6279, "ARG_OF_PERICENTER": 215.8888, "MEAN_ANOMALY": 135.7931, "EPHEMERIS_TYPE": 0, "CLASSIFICATION_TYPE": "U", "NORAD_CAT_ID": 36828, "ELEMENT_SET_NO": 999, "REV_AT_EPOCH": 5624, "BSTAR": 0, "MEAN_MOTION_DOT": -2.4e-07, "MEAN_MOTION_DDOT": 0}, "tle": {"line1": "1 36828U 10036A   25348.90163916 -.00000024  00000+0  00000+0 0  9999", "line2": "2 36828  54.2866 164.6279 0051256 215.8888 135.7931  1.00275796 56247"}}, "geometry": {"type": "Point", "coordinates": [-66.61231843466311, 47.2540510116848]}}, {"type": "Feature", "properties": {"norad_id": 37210, "name": "BEIDOU-2 G4 (C04)", "group": "gnss", "lat": -3.171817845202572, "lon": -27.39999987760151, "alt_km": 35771.56659050027, "timestamp": "2025-12-16T05:49:09.456440+00:00", "meta": {"OBJECT_NAME": "BEIDOU-2 G4 (C04)", "OBJECT_ID": "2010-057A", "EPOCH": "2025-12-15T22:42:35.160192", "MEAN_MOTION": 1.00271903, "ECCENTRICITY": 0.00105925, "INCLINATION": 3.1926, "RA_OF_ASC_NODE": 69.9278, "ARG_OF_PERICENTER": 192.045, "MEAN_ANOMALY": 323.5948, "EPHEMERIS_TYPE": 0, "CLASSIFICATION_TYPE": "U", "NORAD_CAT_ID": 37210, "ELEMENT_SET_NO": 999, "REV_AT_EPOCH": 5545, "BSTAR": 0, "MEAN_MOTION_DOT": -9.1e-07, "MEAN_MOTION_DDOT": 0}, "tle": {"line1": "1 37210U 10057A   25349.94624028 -.00000091  00000+0  00000+0 0  9993", "line2": "2 37210   3.1926  69.9278 0010592 192.0450 323.5948  1.00271903 55451"}}, "geometry": {"type": "Point", "coordinates": [-27.39999987760151, -3.171817845202572]}}, {"type": "Feature", "properties": {"norad_id": 37256, "name": "BEIDOU-2 IGSO-2 (C07)", "group": "gnss", "lat": 4.7113321442631335, "lon": -81.65478022032889, "alt_km": 35958.973169617944, "timestamp": "2025-12-16T05:49:09.456451+00:00", "meta": {"OBJECT_NAME": "BEIDOU-2 IGSO-2 (C07)", "OBJECT_ID": "2010-068A", "EPOCH": "2025-12-15T17:44:21.809184", "MEAN_MOTION": 1.00285693, "ECCENTRICITY": 0.00486119, "INCLINATION": 47.8802, "RA_OF_ASC_NODE": 274.1114, "ARG_OF_PERICENTER": 216.5623, "MEAN_ANOMALY": 327.802, "EPHEMERIS_TYPE": 0, "CLASSIFICATION_TYPE": "U", "NORAD_CAT_ID": 37256, "ELEMENT_SET_NO": 999, "REV_AT_EPOCH": 5495, "BSTAR": 0, "MEAN_MOTION_DOT": -2.2e-06, "MEAN_MOTION_DDOT": 0}, "tle": {"line1": "1 37256U 10068A   25349.73914131 -.00000220  00000+0  00000+0 0  9993", "line2": "2 37256  47.8802 274.1114 0048611 216.5623 327.8020  1.00285693 54958"}}, "geometry": {"type": "Point", "coordinates": [-81.65478022032889, 4.7113321442631335]}}, {"type": "Feature", "properties": {"norad_id": 37384, "name": "BEIDOU-2 IGSO-3 (C08)", "group": "gnss", "lat": -48.782161034536834, "lon": -101.0183917991738, "alt_km": 35697.13084029726, "timestamp": "2025-12-16T05:49:09.456463+00:00", "meta": {"OBJECT_NAME": "BEIDOU-2 IGSO-3 (C08)", "OBJECT_ID": "2011-013A", "EPOCH": "2025-12-15T15:08:39.193152", "MEAN_MOTION": 1.00270237, "ECCENTRICITY": 0.00354064, "INCLINATION": 62.1477, "RA_OF_ASC_NODE": 41.8879, "ARG_OF_PERICENTER": 187.6383, "MEAN_ANOMALY": 189.6615, "EPHEMERIS_TYPE": 0, "CLASSIFICATION_TYPE": "U", "NORAD_CAT_ID": 37384, "ELEMENT_SET_NO": 999, "REV_AT_EPOCH": 5382, "BSTAR": 0, "MEAN_MOTION_DOT": -1.9e-06, "MEAN_MOTION_DDOT": 0}, "tle": {"line1": "1 37384U 11013A   25349.63100918 -.00000190  00000+0  00000+0 0  9991", "line2": "2 37384  62.1477  41.8879 0035406 187.6383 189.6615  1.00270237 53821"}}, "geometry": {"type": "Point", "coordinates": [-101.0183917991738, -48.782161034536834]}}, {"type": "Feature", "properties": {"norad_id": 37605, "name": "GSAT-8 (GAGAN/PRN 127)", "group": "gnss", "lat": 0.9691452974906878, "lon": -132.55323057701276, "alt_km": 35758.18697943131, "timestamp": "2025-12-16T05:49:09.456476+00:00", "meta": {"OBJECT_NAME": "GSAT-8 (GAGAN/PRN 127)", "OBJECT_ID": "2011-022A", "EPOCH": "2025-12-15T11:56:16.548864", "MEAN_MOTION": 1.0027267, "ECCENTRICITY": 0.00086328, "INCLINATION": 1.6568, "RA_OF_ASC_NODE": 84.1677, "ARG_OF_PERICENTER": 184.7193, "MEAN_ANOMALY": 49.665, "EPHEMERIS_TYPE": 0, "CLASSIFICATION_TYPE": "U", "NORAD_CAT_ID": 37605, "ELEMENT_SET_NO": 999, "REV_AT_EPOCH": 5137, "BSTAR": 0, "MEAN_MOTION_DOT": 1.05e-06, "MEAN_MOTION_DDOT": 0}, "tle": {"line1": "1 37605U 11022A   25349.49741376  .00000105  00000+0  00000+0 0  9995", "line2": "2 37605   1.6568  84.1677 0008632 184.7193  49.6650  1.00272670 51375"}}, "geometry": {"type": "Point", "coordinates": [-132.55323057701276, 0.9691452974906878]}}, {"type": "Feature", "properties": {"norad_id": 37763, "name": "BEIDOU-2 IGSO-4 (C09)", "group": "gnss", "lat": 53.6843076372408, "lon": -88.5334433045678, "alt_km": 36193.54868218646, "timestamp": "2025-12-16T05:49:09.456488+00:00", "meta": {"OBJECT_NAME": "BEIDOU-2 IGSO-4 (C09)", "OBJECT_ID": "2011-038A", "EPOCH": "2025-12-15T07:50:06.120672", "MEAN_MOTION": 1.00281785, "ECCENTRICITY": 0.01493054, "INCLINATION": 54.5835, "RA_OF_ASC_NODE": 167.3229, "ARG_OF_PERICENTER": 230.222, "MEAN_ANOMALY": 258.6911, "EPHEMERIS_TYPE": 0, "CLASSIFICATION_TYPE": "U", "NORAD_CAT_ID": 37763, "ELEMENT_SET_NO": 999, "REV_AT_EPOCH": 5280, "BSTAR": 0, "MEAN_MOTION_DOT": 6.8e-07, "MEAN_MOTION_DDOT": 0}, "tle": {"line1": "1 37763U 11038A   25349.32645973  .00000068  00000+0  00000+0 0  9993", "line2": "2 37763  54.5835 167.3229 0149305 230.2220 258.6911  1.00281785 52800"}}, "geometry": {"type": "Point", "coordinates": [-88.5334433045678, 53.6843076372408]}}, {"type": "Feature", "properties": {"norad_id": 37846, "name": "GSAT0101 (GALILEO-PFM)", "group": "gnss", "lat": -52.39003429407099, "lon": -135.92838640495094, "alt_km": 23224.01067924869, "timestamp": "2025-12-16T05:49:09.456500+00:00", "meta": {"OBJECT_NAME": "GSAT0101 (GALILEO-PFM)", "OBJECT_ID": "2011-060A", "EPOCH": "2025-12-15T20:00:41.819904", "MEAN_MOTION": 1.70475823, "ECCENTRICITY": 0.00030775, "INCLINATION": 57.052, "RA_OF_ASC_NODE": 346.7358, "ARG_OF_PERICENTER": 316.7426, "MEAN_ANOMALY": 43.2514, "EPHEMERIS_TYPE": 0, "CLASSIFICATION_TYPE": "U", "NORAD_CAT_ID": 37846, "ELEMENT_SET_NO": 999, "REV_AT_EPOCH": 8799, "BSTAR": 0, "MEAN_MOTION_DOT": -8.2e-07, "MEAN_MOTION_DDOT": 0}, "tle": {"line1": "1 37846U 11060A   25349.83381736 -.00000082  00000+0  00000+0 0  9997", "line2": "2 37846  57.0520 346.7358 0003077 316.7426  43.2514  1.70475823 87990"}}, "geometry": {"type": "Point", "coordinates": [-135.92838640495094, -52.39003429407099]}}, {"type": "Feature", "properties": {"norad_id": 37847, "name": "GSAT0102 (GALILEO-FM2)", "group": "gnss", "lat": -48.80663266036207, "lon": -61.10065657905862, "alt_km": 23213.013823542267, "timestamp": "2025-12-16T05:49:09.456512+00:00", "meta": {"OBJECT_NAME": "GSAT0102 (GALILEO-FM2)", "OBJECT_ID": "2011-060B", "EPOCH": "2025-12-15T11:17:12.789024", "MEAN_MOTION": 1.70476038, "ECCENTRICITY": 0.0005041, "INCLINATION": 57.0528, "RA_OF_ASC_NODE": 346.7461, "ARG_OF_PERICENTER": 310.8731, "MEAN_ANOMALY": 231.4829, "EPHEMERIS_TYPE": 0, "CLASSIFICATION_TYPE": "U", "NORAD_CAT_ID": 37847, "ELEMENT_SET_NO": 999, "REV_AT_EPOCH": 8799, "BSTAR": 0, "MEAN_MOTION_DOT": -8.3e-07, "MEAN_MOTION_DDOT": 0}, "tle": {"line1": "1 37847U 11060B   25349.47028691 -.00000083  00000+0  00000+0 0  9997", "line2": "2 37847  57.0528 346.7461 0005041 310.8731 231.4829  1.70476038 87990"}}, "geometry": {"type": "Point", "coordinates": [-61.10065657905862, -48.80663266036207]}}]}